NORAD_CAT_ID,OBJECT_NAME,OBJECT_TYPE,EPOCH,MEAN_MOTION,ECCENTRICITY,INCLINATION,RA_OF_ASC_NODE,ARG_OF_PERICENTER,MEAN_ANOMALY,BSTAR,MEAN_MOTION_DOT,MEAN_MOTION_DDOT,TLE_LINE0,TLE_LINE1,TLE_LINE2,SEMIMAJOR_AXIS,PERIOD,APOGEE,PERIGEE,DECAYED
53837.0,STARLINK-4776,PAYLOAD,2023-06-14 02:45:10,15.08841318,0.0001151,53.2169,111.0944,88.1848,271.9276,2.2793e-05,7.5e-07,0.0,0 STARLINK-4776,1 53837U 22114V   23165.11470967  .00000075  00000-0  22793-4 0  9997,2 53837  53.2169 111.0944 0001151  88.1848 271.9276 15.08841318 41399,6917.876,95.437,540.538,538.945,0.0
53837.0,STARLINK-4776,PAYLOAD,2023-06-14 05:55:56,15.08845435,0.0001142,53.2163,110.499,83.362,276.7502,2.4222e-05,9.8e-07,0.0,0 STARLINK-4776,1 53837U 22114V   23165.24718700  .00000098  00000-0  24222-4 0  9995,2 53837  53.2163 110.4990 0001142  83.3620 276.7502 15.08845435 41953,6917.864,95.437,540.519,538.939,0.0
53837.0,STARLINK-4776,PAYLOAD,2023-06-15 05:46:44,15.08843793,0.0001266,53.2169,106.0375,92.3333,267.7805,1.2204e-05,-9.4e-07,0.0,0 STARLINK-4776,1 53837U 22114V   23166.24078865 -.00000094  00000-0  12204-4 0  9991,2 53837  53.2169 106.0375 0001266  92.3333 267.7805 15.08843793 41563,6917.869,95.437,540.61,538.858,0.0
53837.0,STARLINK-4776,PAYLOAD,2023-06-16 05:37:33,15.08756505,0.0001765,53.2171,101.5753,87.9657,272.1537,0.0012532,0.00019667,0.0,0 STARLINK-4776,1 53837U 22114V   23167.23441279  .00019667  00000-0  12532-2 0  9991,2 53837  53.2171 101.5753 0001765  87.9657 272.1537 15.08756505 41712,6918.136,95.443,541.222,538.78,0.0
53837.0,STARLINK-4776,PAYLOAD,2023-06-16 19:55:59,15.08876223,0.0001419,53.2168,98.8988,96.9988,263.1166,-0.00033715,-5.655e-05,0.0,0 STARLINK-4776,1 53837U 22114V   23167.83054483 -.00005655  00000-0 -33715-3 0  9995,2 53837  53.2168  98.8988 0001419  96.9988 263.1166 15.08876223 42347,6917.77,95.435,540.616,538.653,0.0
53837.0,STARLINK-4776,PAYLOAD,2023-06-17 02:17:31,15.08851372,0.000115,53.2161,97.7142,100.1645,259.9477,0.00010502,1.384e-05,0.0,0 STARLINK-4776,1 53837U 22114V   23168.09549796  .00001384  00000-0  10502-3 0  9992,2 53837  53.2161  97.7142 0001150 100.1645 259.9477 15.08851372 41840,6917.846,95.437,540.506,538.915,0.0
53837.0,STARLINK-4776,PAYLOAD,2023-06-17 11:49:49,15.08855792,0.0001117,53.217,95.9286,99.342,260.7698,0.00011467,1.538e-05,0.0,0 STARLINK-4776,1 53837U 22114V   23168.49293162  .00001538  00000-0  11467-3 0  9991,2 53837  53.2170  95.9286 0001117  99.3420 260.7698 15.08855792 42444,6917.832,95.437,540.47,538.924,0.0
53837.0,STARLINK-4776,PAYLOAD,2023-06-17 18:11:24,15.08827658,0.000178,53.2155,94.7382,121.2203,238.8964,-5.4809e-05,-1.16e-05,0.0,0 STARLINK-4776,1 53837U 22114V   23168.75791859 -.00001160  00000-0 -54809-4 0  9997,2 53837  53.2155  94.7382 0001780 121.2203 238.8964 15.08827658 41947,6917.918,95.438,541.015,538.552,0.0
53837.0,STARLINK-4776,PAYLOAD,2023-06-17 19:46:47,15.08831276,0.0001618,53.2159,94.4397,117.5967,242.519,-0.00012796,-2.323e-05,0.0,0 STARLINK-4776,1 53837U 22114V   23168.82416020 -.00002323  00000-0 -12796-3 0  9999,2 53837  53.2159  94.4397 0001618 117.5967 242.5190 15.08831276 42494,6917.907,95.438,540.891,538.653,0.0
53837.0,STARLINK-4776,PAYLOAD,2023-06-18 02:08:20,15.08825203,9.46e-05,53.2172,93.2528,87.5643,272.5457,-0.00018514,-3.232e-05,0.0,0 STARLINK-4776,1 53837U 22114V   23169.08912843 -.00003232  00000-0 -18514-3 0  9996,2 53837  53.2172  93.2528 0000946  87.5643 272.5457 15.08825203 41998,6917.926,95.438,540.445,539.136,0.0
53837.0,STARLINK-4776,PAYLOAD,2023-06-18 11:40:39,15.08832649,0.000103,53.2171,91.4684,99.2063,260.9045,-0.00010288,-1.924e-05,0.0,0 STARLINK-4776,1 53837U 22114V   23169.48656365 -.00001924  00000-0 -10288-3 0  9990,2 53837  53.2171  91.4684 0001030  99.2063 260.9045 15.08832649 42594,6917.903,95.438,540.48,539.055,0.0
53837.0,STARLINK-4776,PAYLOAD,2023-06-18 21:12:57,15.08839608,0.0001007,53.2174,89.6841,96.6825,263.4281,-1.3929e-05,-5.09e-06,0.0,0 STARLINK-4776,1 53837U 22114V   23169.88399932 -.00000509  00000-0 -13929-4 0  9992,2 53837  53.2174  89.6841 0001007  96.6825 263.4281 15.08839608 42112,6917.882,95.438,540.443,539.05,0.0
53837.0,STARLINK-4776,PAYLOAD,2023-06-19 03:34:29,15.08846711,0.0001024,53.2172,88.4948,98.6659,261.4449,5.2818e-05,5.53e-06,0.0,0 STARLINK-4776,1 53837U 22114V   23170.14895306  .00000553  00000-0  52818-4 0  9996,2 53837  53.2172  88.4948 0001024  98.6659 261.4449 15.08846711 42152,6917.86,95.437,540.433,539.016,0.0
53837.0,STARLINK-4776,PAYLOAD,2023-06-19 13:06:48,15.08850862,0.0001256,53.217,86.7108,102.6128,257.5005,-6.1452e-05,-1.266e-05,0.0,0 STARLINK-4776,1 53837U 22114V   23170.54639256 -.00001266  00000-0 -61452-4 0  9998,2 53837  53.2170  86.7108 0001256 102.6128 257.5005 15.08850862 42755,6917.847,95.437,540.581,538.843,0.0
53837.0,STARLINK-4776,PAYLOAD,2023-06-20 03:25:17,15.08835116,0.0001039,53.217,84.0338,104.6189,255.4918,0.00024191,3.564e-05,0.0,0 STARLINK-4776,1 53837U 22114V   23171.14255846  .00003564  00000-0  24191-3 0  9993,2 53837  53.2170  84.0338 0001039 104.6189 255.4918 15.08835116 42305,6917.895,95.438,540.479,539.042,0.0
53837.0,STARLINK-4776,PAYLOAD,2023-06-20 05:00:39,15.08839444,0.0001043,53.2169,83.7361,101.4455,258.6655,0.00027018,4.015e-05,0.0,0 STARLINK-4776,1 53837U 22114V   23171.20879497  .00004015  00000-0  27018-3 0  9997,2 53837  53.2169  83.7361 0001043 101.4455 258.6655 15.08839444 42852,6917.882,95.438,540.469,539.026,0.0
53837.0,STARLINK-4776,PAYLOAD,2023-06-20 17:43:44,15.08847841,0.0001175,53.2177,81.3566,83.9024,276.2103,0.00012044,1.63e-05,0.0,0 STARLINK-4776,1 53837U 22114V   23171.73871399  .00001630  00000-0  12044-3 0  9991,2 53837  53.2177  81.3566 0001175  83.9024 276.2103 15.08847841 42937,6917.856,95.437,540.534,538.909,0.0
53837.0,STARLINK-4776,PAYLOAD,2023-06-21 01:40:40,15.08853239,0.0001034,53.2172,79.8707,106.6392,253.4713,8.9895e-05,1.144e-05,0.0,0 STARLINK-4776,1 53837U 22114V   23172.06991090  .00001144  00000-0  89895-4 0  9998,2 53837  53.2172  79.8707 0001034 106.6392 253.4713 15.08853239 42444,6917.84,95.437,540.42,538.99,0.0
53837.0,STARLINK-4776,PAYLOAD,2023-06-21 11:12:59,15.0884441,9.11e-05,53.2169,78.0878,98.5302,261.5794,-4.6288e-06,-3.61e-06,0.0,0 STARLINK-4776,1 53837U 22114V   23172.46735756 -.00000361  00000-0 -46288-5 0  9999,2 53837  53.2169  78.0878 0000911  98.5302 261.5794 15.08844410 42500,6917.867,95.437,540.362,539.102,0.0
53837.0,STARLINK-4776,PAYLOAD,2023-06-21 23:56:05,15.08838402,0.000115,53.217,75.7077,95.635,264.4774,-3.6885e-06,-3.47e-06,0.0,0 STARLINK-4776,1 53837U 22114V   23172.99728170 -.00000347  00000-0 -36885-5 0  9995,2 53837  53.2170  75.7077 0001150  95.6350 264.4774 15.08838402 42586,6917.885,95.438,540.546,538.955,0.0
53837.0,STARLINK-4776,PAYLOAD,2023-06-22 23:46:51,15.08844667,0.0001213,53.2171,71.2472,98.8737,261.2392,6.3322e-05,7.2e-06,0.0,0 STARLINK-4776,1 53837U 22114V   23173.99087665  .00000720  00000-0  63322-4 0  9991,2 53837  53.2171  71.2472 0001213  98.8737 261.2392 15.08844667 42739,6917.866,95.437,540.57,538.892,0.0
53837.0,STARLINK-4776,PAYLOAD,2023-06-23 02:57:37,15.08850625,0.0001123,53.2173,70.6527,92.4397,267.6724,5.9426e-05,6.58e-06,0.0,0 STARLINK-4776,1 53837U 22114V   23174.12335253  .00000658  00000-0  59426-4 0  9996,2 53837  53.2173  70.6527 0001123  92.4397 267.6724 15.08850625 42759,6917.848,95.437,540.49,538.936,0.0
53837.0,STARLINK-4776,PAYLOAD,2023-06-24 01:13:01,15.08845933,0.0001214,53.2181,66.4879,92.5565,267.5566,0.00011702,1.575e-05,0.0,0 STARLINK-4776,1 53837U 22114V   23175.05071458  .00001575  00000-0  11702-3 0  9996,2 53837  53.2181  66.4879 0001214  92.5565 267.5566 15.08845933 42894,6917.862,95.437,540.567,538.887,0.0
53837.0,STARLINK-4776,PAYLOAD,2023-06-25 01:03:48,15.08846734,9.62e-05,53.2175,62.0293,85.1051,275.0051,8.4005e-05,1.05e-05,0.0,0 STARLINK-4776,1 53837U 22114V   23176.04431610  .00001050  00000-0  84005-4 0  9991,2 53837  53.2175  62.0293 0000962  85.1051 275.0051 15.08846734 43047,6917.86,95.437,540.39,539.059,0.0
53837.0,STARLINK-4776,PAYLOAD,2023-06-26 02:29:59,15.08842613,9.09e-05,53.2175,57.2725,87.4616,272.648,5.8193e-06,-1.95e-06,0.0,0 STARLINK-4776,1 53837U 22114V   23177.10416084 -.00000195  00000-0  58193-5 0  9997,2 53837  53.2175  57.2725 0000909  87.4616 272.6480 15.08842613 43205,6917.872,95.437,540.366,539.109,0.0
53837.0,STARLINK-4776,PAYLOAD,2023-06-26 16:48:28,15.08836002,8.61e-05,53.2175,54.5959,88.3857,271.7234,-2.9184e-05,-7.52e-06,0.0,0 STARLINK-4776,1 53837U 22114V   23177.70032893 -.00000752  00000-0 -29184-4 0  9992,2 53837  53.2175  54.5959 0000861  88.3857 271.7234 15.08836002 43299,6917.893,95.438,540.353,539.162,0.0
53837.0,STARLINK-4776,PAYLOAD,2023-06-27 03:56:09,15.08846819,8.32e-05,53.2178,52.5146,91.8666,268.2421,6.5165e-05,7.5e-06,0.0,0 STARLINK-4776,1 53837U 22114V   23178.16400017  .00000750  00000-0  65165-4 0  9995,2 53837  53.2178  52.5146 0000832  91.8666 268.2421 15.08846819 43367,6917.86,95.437,540.3,539.149,0.0
53837.0,STARLINK-4776,PAYLOAD,2023-06-27 08:42:19,15.0883641,4.23e-05,53.2189,51.626,210.4066,149.6902,2.0108e-05,3.3e-07,0.0,0 STARLINK-4776,1 53837U 22114V   23178.36272428  .00000033  00000-0  20108-4 0  9992,2 53837  53.2189  51.6260 0000423 210.4066 149.6902 15.08836410 43390,6917.891,95.438,540.049,539.464,0.0
53837.0,STARLINK-4776,PAYLOAD,2023-06-27 23:00:47,15.08842697,8.02e-05,53.2175,48.9465,89.4676,270.6408,0.00011371,1.523e-05,0.0,0 STARLINK-4776,1 53837U 22114V   23178.95888398  .00001523  00000-0  11371-3 0  9992,2 53837  53.2175  48.9465 0000802  89.4676 270.6408 15.08842697 43483,6917.872,95.437,540.292,539.182,0.0
53837.0,STARLINK-4776,PAYLOAD,2023-06-28 22:51:35,15.08836471,8.34e-05,53.2179,44.4857,86.9074,273.2014,5.056e-05,5.17e-06,0.0,0 STARLINK-4776,1 53837U 22114V   23179.95249267  .00000517  00000-0  50560-4 0  9995,2 53837  53.2179  44.4857 0000834  86.9074 273.2014 15.08836471 43634,6917.891,95.438,540.333,539.179,0.0
